IRIDIUM 26              
1 24903U 97043A   25123.06757467  .00000679  00000+0  22213-3 0  9990
2 24903  86.3929 129.5799 0002129  92.8888 267.2553 14.37106654450732
IRIDIUM 22              
1 24907U 97043E   25123.09957010  .00000574  00000+0  19124-3 0  9994
2 24907  86.3939 133.0657 0002308  91.4866 268.6595 14.35925105450290
DUMMY MASS 1            
1 24925U 97048A   25122.65624614  .00000619  00000+0  66107-4 0  9995
2 24925  86.3359 156.3795 0004945 325.5711  34.5193 14.86949348498361
DUMMY MASS 2            
1 24926U 97048B   25122.81273990  .00000620  00000+0  66652-4 0  9998
2 24926  86.3362 157.9049 0006111 336.7485  23.3462 14.86702305498167
IRIDIUM 29              
1 24944U 97051A   25123.20804729  .00000639  00000+0  21136-3 0  9993
2 24944  86.3983 162.7580 0002486  90.3584 269.7898 14.36429767447036
IRIDIUM 33              
1 24946U 97051C   25122.86172826  .00000425  00000+0  14295-3 0  9993
2 24946  86.3898 162.1596 0006446 211.8210 148.2598 14.34865162446252
IRIDIUM 28              
1 24948U 97051E   25123.14102240  .00000524  00000+0  16906-3 0  9991
2 24948  86.3986 160.3296 0001980 100.7204 259.4216 14.37354402447443
IRIDIUM 36              
1 24967U 97056C   25123.25052013  .00000671  00000+0  21736-3 0  9991
2 24967  86.4024 191.8569 0002362 100.4717 259.6747 14.37574096445768
